HORYU-4                 
1 41340U 16012D   24366.66503626  .00036887  00000+0  13485-2 0  9991
2 41340  30.9996 119.4552 0007399 187.7533 172.2996 15.26864332488241
RAVAN                   
1 41849U 16067B   24365.76589393  .00036295  00000+0  15440-2 0  9996
2 41849  98.0550 196.1972 0011590  76.6148 283.6378 15.22862699445806
CELTEE 1                
1 41850U 16067C   24366.46887310  .00014259  00000+0  84874-3 0  9990
2 41850  98.1045 186.9517 0000112 181.9697 178.1531 15.11349063445179
OPTICUBE 04             
1 41851U 16067D   25001.07728254  .00008506  00000+0  59335-3 0  9998
2 41851  98.0854 180.9074 0018513 110.6144 249.7068 15.05518209444980
AEROCUBE 8D             
1 41852U 16067E   24366.97087458  .00019303  00000+0  10781-2 0  9993
2 41852  98.1099 187.8853 0004699 147.5362 212.6157 15.13563753445257
AEROCUBE 8C             
1 41853U 16067F   24366.98561055  .00020007  00000+0  11153-2 0  9992
2 41853  98.0924 186.0144 0007736  88.2242 271.9874 15.13605960445241
PROMETHEUS 2-1          
1 41854U 16067G   25001.01680203  .00063644  00000+0  20683-2 0  9993
2 41854  98.0906 197.7067 0009739  89.4729 270.7626 15.31633024445854
PROMETHEUS 2-3          
1 41855U 16067H   24366.82545373  .00063132  00000+0  20593-2 0  9996
2 41855  98.0849 196.7966 0008182  99.6205 260.5959 15.31528932445825
CORVUS BC2              
1 42846U 17042X   24366.42194134  .00009369  00000+0  73890-3 0  9993
2 42846  97.3662 180.9862 0013425 110.3745 249.8924 15.00873902406990
CORVUS BC1              
1 42847U 17042Y   24366.76323743  .00009710  00000+0  76257-3 0  9991
2 42847  97.3674 181.7302 0013072  84.7975 275.4742 15.01029535407067
MIRATA                  
1 43015U 17073C   24366.94362365  .00081516  00000+0  24925-2 0  9994
2 43015  97.5652 251.3403 0123747 297.6152  61.2565 15.26297049386280
MAKERSAT 0              
1 43016U 17073D   25001.13095833  .00040037  00000+0  18803-2 0  9997
2 43016  97.5430 241.4206 0166325 330.3505  28.8371 15.08009229385635
SIRION PATHFINDER-2     
1 43759U 18099B   24366.86227278  .00012949  00000+0  86662-3 0  9993
2 43759  97.5032  57.7084 0009672 342.6747  17.4149 15.07018640332235
CORVUS BC4              
1 43767U 18099K   25001.08152974  .00012672  00000+0  87524-3 0  9994
2 43767  97.4856  54.4393 0010443  37.1114 323.0833 15.05843220332139
MOVE-II                 
1 43780U 18099Y   24366.84912710  .00088600  00000+0  25418-2 0  9995
2 43780  97.4927  70.1175 0004675  14.1524 345.9850 15.35518885333037
SPACEBEE-7              
1 43816U 18099BL  24366.44419382  .00039658  00000+0  16453-2 0  9996
2 43816  97.5222  68.9892 0007126 329.6493  30.4330 15.23725504332314
SPACEBEE-6              
1 43818U 18099BN  25001.18410433  .01206572  00000+0  42928-2 0  9992
2 43818  97.4973  82.2169 0007754 297.5781  62.4701 15.86497495333406
SHIELDS 1               
1 43850U 18104B   24366.77557866  .00041035  00000+0  75666-3 0  9991
2 43850  85.0201 148.0045 0009781  45.8425 314.3634 15.48903673336623
SONATE                  
1 44400U 19038Q   25001.07748163  .00079927  00000+0  12865-2 0  9994
2 44400  97.7116  12.4352 0013798 109.9736 250.3003 15.52589744304577
DUCHIFAT-3              
1 44854U 19089C   24366.88183096  .00055699  00000+0  18527-2 0  9994
2 44854  36.9504 277.8154 0012599 303.1274  56.8268 15.30078326278416
M2 PATHFINDER           
1 45727U 20037E   24366.44010124  .00009096  00000+0  73378-3 0  9998
2 45727  97.7772 182.3437 0011662 161.3691 198.7961 15.00051406245483
NETSAT-4                
1 46504U 20068U   24366.85647267  .00029917  00000+0  12590-2 0  9997
2 46504  97.8296 330.6897 0010504  48.3444 311.8689 15.23283557234179
NETSAT-3                
1 46505U 20068V   24366.66041272  .00027264  00000+0  11768-2 0  9990
2 46505  97.8283 329.7400 0010117  57.3725 302.8485 15.22447064234120
NETSAT-1                
1 46506U 20068W   24366.35524056  .00018274  00000+0  86920-3 0  9997
2 46506  97.8304 328.2272 0009476  68.4610 291.7633 15.19202450233997
NETSAT-2                
1 46507U 20068X   24366.88223971  .00028282  00000+0  11971-2 0  9991
2 46507  97.8284 330.2877 0008707  70.4644 289.7531 15.23114876234124
WILDTRACKCUBE-SIMBA     
1 47941U 21022K   25001.12766710  .00046787  00000+0  14460-2 0  9998
2 47941  97.4404 263.3477 0012377 154.2658 205.9202 15.33297865208669
GRBALPHA                
1 47959U 21022AD  25001.13999468  .00101987  00000+0  20857-2 0  9997
2 47959  97.4392 267.4165 0010713 132.5483 227.6672 15.45697971207756
BEESAT-8                
1 48085U 21022AP  24365.72137096  .00432562  00000+0  29596-2 0  9991
2 48085  97.4765 273.5903 0011434 103.2949 256.9590 15.73466822208230
